start=new Date('2022-11-26T00:00:00.000Z').valueOf();
sats=[{"SEMIMAJOR_AXIS":"6925.384","APOAPSIS":"548.396","BSTAR":"-0.00003381700000","RA_OF_ASC_NODE":"158.2197","FILE":"3670141","MEAN_ELEMENT_THEORY":"SGP4","TLE_LINE2":"2 48136  53.0546 158.2197 0001656  70.5429 289.5739 15.06388546 91565","TLE_LINE1":"1 48136U 21027AW  22329.77918764 -.00000785  00000-0 -33817-4 0  9999","ELEMENT_SET_NO":"999","COUNTRY_CODE":"US","MEAN_MOTION":"15.06388546","INCLINATION":"53.0546","NORAD_CAT_ID":"48136","MEAN_ANOMALY":"289.5739","ECCENTRICITY":"0.00016560","PERIAPSIS":"546.102","GP_ID":"218818854","DECAY_DATE":null,"REV_AT_EPOCH":"9156","TIME_SYSTEM":"UTC","RCS_SIZE":"LARGE","OBJECT_NAME":"STARLINK-2479","MEAN_MOTION_DDOT":"0.0000000000000","REF_FRAME":"TEME","MEAN_MOTION_DOT":"-0.00000785","LAUNCH_DATE":"2021-04-07","PERIOD":"95.593","EPOCH":"2022-11-25T18:42:01.812096","OBJECT_TYPE":"PAYLOAD","CLASSIFICATION_TYPE":"U","ARG_OF_PERICENTER":"70.5429","OBJECT_ID":"2021-027AW","EPHEMERIS_TYPE":"0","SITE":"AFETR","CENTER_NAME":"EARTH"},{"LAUNCH_DATE":"2021-04-07","MEAN_MOTION_DOT":"0.00001641","PERIOD":"95.592","OBJECT_NAME":"STARLINK-2480","MEAN_MOTION_DDOT":"0.0000000000000","REF_FRAME":"TEME","RCS_SIZE":"LARGE","REV_AT_EPOCH":"9183","TIME_SYSTEM":"UTC","CENTER_NAME":"EARTH","ARG_OF_PERICENTER":"79.3395","CLASSIFICATION_TYPE":"U","SITE":"AFETR","EPHEMERIS_TYPE":"0","OBJECT_ID":"2021-027AX","OBJECT_TYPE":"PAYLOAD","EPOCH":"2022-11-25T17:42:19.264608","TLE_LINE1":"1 48137U 21027AX  22329.73772297  .00001641  00000-0  12904-3 0  9998","TLE_LINE2":"2 48137  53.0542 138.3894 0001607  79.3395 280.7775 15.06409852 91837","ELEMENT_SET_NO":"999","COUNTRY_CODE":"US","BSTAR":"0.00012904000000","RA_OF_ASC_NODE":"138.3894","MEAN_ELEMENT_THEORY":"SGP4","FILE":"3670141","SEMIMAJOR_AXIS":"6925.318","APOAPSIS":"548.296","DECAY_DATE":null,"GP_ID":"218819104","ECCENTRICITY":"0.00016070","PERIAPSIS":"546.070","NORAD_CAT_ID":"48137","INCLINATION":"53.0542","MEAN_ANOMALY":"280.7775","MEAN_MOTION":"15.06409852"},{"NORAD_CAT_ID":"48138","INCLINATION":"53.0532","MEAN_ANOMALY":"296.3947","MEAN_MOTION":"15.06399256","GP_ID":"218819848","DECAY_DATE":null,"ECCENTRICITY":"0.00019970","PERIAPSIS":"545.833","SEMIMAJOR_AXIS":"6925.351","APOAPSIS":"548.599","TLE_LINE2":"2 48138  53.0532 157.9929 0001997  63.7247 296.3947 15.06399256 91579","ELEMENT_SET_NO":"999","TLE_LINE1":"1 48138U 21027AY  22329.83172480  .00001373  00000-0  11104-3 0  9991","COUNTRY_CODE":"US","BSTAR":"0.00011104000000","RA_OF_ASC_NODE":"157.9929","MEAN_ELEMENT_THEORY":"SGP4","FILE":"3670141","CLASSIFICATION_TYPE":"U","ARG_OF_PERICENTER":"63.7247","OBJECT_ID":"2021-027AY","SITE":"AFETR","EPHEMERIS_TYPE":"0","EPOCH":"2022-11-25T19:57:41.022720","OBJECT_TYPE":"PAYLOAD","CENTER_NAME":"EARTH","RCS_SIZE":"LARGE","REV_AT_EPOCH":"9157","TIME_SYSTEM":"UTC","MEAN_MOTION_DOT":"0.00001373","LAUNCH_DATE":"2021-04-07","PERIOD":"95.592","OBJECT_NAME":"STARLINK-2481","MEAN_MOTION_DDOT":"0.0000000000000","REF_FRAME":"TEME"},{"APOAPSIS":"548.301","SEMIMAJOR_AXIS":"6925.317","MEAN_ELEMENT_THEORY":"SGP4","FILE":"3670141","BSTAR":"-0.00022254000000","RA_OF_ASC_NODE":"138.3428","COUNTRY_CODE":"US","TLE_LINE1":"1 48139U 21027AZ  22329.75616564 -.00003596  00000-0 -22254-3 0  9998","TLE_LINE2":"2 48139  53.0542 138.3428 0001615  66.8536 293.2623 15.06410165 91840","ELEMENT_SET_NO":"999","MEAN_MOTION":"15.06410165","MEAN_ANOMALY":"293.2623","NORAD_CAT_ID":"48139","INCLINATION":"53.0542","PERIAPSIS":"546.064","ECCENTRICITY":"0.00016150","GP_ID":"218820097","DECAY_DATE":null,"TIME_SYSTEM":"UTC","REV_AT_EPOCH":"9184","RCS_SIZE":"LARGE","REF_FRAME":"TEME","OBJECT_NAME":"STARLINK-2482","MEAN_MOTION_DDOT":"0.0000000000000","PERIOD":"95.591","LAUNCH_DATE":"2021-04-07","MEAN_MOTION_DOT":"-0.00003596","EPOCH":"2022-11-25T18:08:52.711296","OBJECT_TYPE":"PAYLOAD","OBJECT_ID":"2021-027AZ","SITE":"AFETR","EPHEMERIS_TYPE":"0","CLASSIFICATION_TYPE":"U","ARG_OF_PERICENTER":"66.8536","CENTER_NAME":"EARTH"},{"DECAY_DATE":null,"GP_ID":"218819354","PERIAPSIS":"546.172","ECCENTRICITY":"0.00015530","MEAN_ANOMALY":"288.9504","NORAD_CAT_ID":"48140","INCLINATION":"53.0545","MEAN_MOTION":"15.06388990","COUNTRY_CODE":"US","TLE_LINE1":"1 48140U 21027BA  22329.79024934  .00000995  00000-0  85677-4 0  9995","TLE_LINE2":"2 48140  53.0545 158.1896 0001553  71.1653 288.9504 15.06388990 91562","ELEMENT_SET_NO":"999","FILE":"3670141","MEAN_ELEMENT_THEORY":"SGP4","RA_OF_ASC_NODE":"158.1896","BSTAR":"0.00008567700000","APOAPSIS":"548.323","SEMIMAJOR_AXIS":"6925.382","CENTER_NAME":"EARTH","EPHEMERIS_TYPE":"0","SITE":"AFETR","OBJECT_ID":"2021-027BA","ARG_OF_PERICENTER":"71.1653","CLASSIFICATION_TYPE":"U","OBJECT_TYPE":"PAYLOAD","EPOCH":"2022-11-25T18:57:57.542976","PERIOD":"95.593","LAUNCH_DATE":"2021-04-07","MEAN_MOTION_DOT":"0.00000995","REF_FRAME":"TEME","OBJECT_NAME":"STARLINK-2483","MEAN_MOTION_DDOT":"0.0000000000000","RCS_SIZE":"LARGE","TIME_SYSTEM":"UTC","REV_AT_EPOCH":"9156"},{"CENTER_NAME":"EARTH","ARG_OF_PERICENTER":"66.0217","CLASSIFICATION_TYPE":"U","SITE":"AFETR","EPHEMERIS_TYPE":"0","OBJECT_ID":"2021-027BB","OBJECT_TYPE":"PAYLOAD","EPOCH":"2022-11-25T19:31:10.479936","MEAN_MOTION_DOT":"0.00003172","LAUNCH_DATE":"2021-04-07","PERIOD":"95.592","MEAN_MOTION_DDOT":"0.0000000000000","OBJECT_NAME":"STARLINK-2484","REF_FRAME":"TEME","RCS_SIZE":"LARGE","REV_AT_EPOCH":"9158","TIME_SYSTEM":"UTC","DECAY_DATE":null,"GP_ID":"218819604","ECCENTRICITY":"0.00017650","PERIAPSIS":"546.008","INCLINATION":"53.0542","NORAD_CAT_ID":"48141","MEAN_ANOMALY":"294.0957","MEAN_MOTION":"15.06394518","TLE_LINE2":"2 48141  53.0542 158.0610 0001765  66.0217 294.0957 15.06394518 91582","ELEMENT_SET_NO":"999","TLE_LINE1":"1 48141U 21027BB  22329.81331574  .00003172  00000-0  23177-3 0  9996","COUNTRY_CODE":"US","BSTAR":"0.00023177000000","RA_OF_ASC_NODE":"158.0610","MEAN_ELEMENT_THEORY":"SGP4","FILE":"3670141","SEMIMAJOR_AXIS":"6925.365","APOAPSIS":"548.453"},{"EPOCH":"2022-11-25T19:39:06.848928","OBJECT_TYPE":"PAYLOAD","OBJECT_ID":"2021-027BC","EPHEMERIS_TYPE":"0","SITE":"AFETR","CLASSIFICATION_TYPE":"U","ARG_OF_PERICENTER":"83.1025","CENTER_NAME":"EARTH","TIME_SYSTEM":"UTC","REV_AT_EPOCH":"9185","RCS_SIZE":"LARGE","REF_FRAME":"TEME","MEAN_MOTION_DDOT":"0.0000000000000","OBJECT_NAME":"STARLINK-2485","PERIOD":"95.593","MEAN_MOTION_DOT":"-0.00000320","LAUNCH_DATE":"2021-04-07","MEAN_MOTION":"15.06394235","MEAN_ANOMALY":"277.0135","INCLINATION":"53.0539","NORAD_CAT_ID":"48142","PERIAPSIS":"546.190","ECCENTRICITY":"0.00015040","GP_ID":"218820348","DECAY_DATE":null,"APOAPSIS":"548.273","SEMIMAJOR_AXIS":"6925.366","FILE":"3670141","MEAN_ELEMENT_THEORY":"SGP4","BSTAR":"-0.00000257520000","RA_OF_ASC_NODE":"138.0549","COUNTRY_CODE":"US","TLE_LINE2":"2 48142  53.0539 138.0549 0001504  83.1025 277.0135 15.06394235 91851","TLE_LINE1":"1 48142U 21027BC  22329.81882927 -.00000320  00000-0 -25752-5 0  9997","ELEMENT_SET_NO":"999"},{"EPOCH":"2022-11-25T17:38:58.166880","OBJECT_TYPE":"PAYLOAD","OBJECT_ID":"2021-027BD","SITE":"AFETR","EPHEMERIS_TYPE":"0","CLASSIFICATION_TYPE":"U","ARG_OF_PERICENTER":"75.8992","CENTER_NAME":"EARTH","TIME_SYSTEM":"UTC","REV_AT_EPOCH":"9246","RCS_SIZE":"LARGE","REF_FRAME":"TEME","MEAN_MOTION_DDOT":"0.0000000000000","OBJECT_NAME":"STARLINK-2486","PERIOD":"95.592","MEAN_MOTION_DOT":"0.00001372","LAUNCH_DATE":"2021-04-07","MEAN_MOTION":"15.06406759","MEAN_ANOMALY":"284.2125","NORAD_CAT_ID":"48143","INCLINATION":"53.0541","PERIAPSIS":"546.390","ECCENTRICITY":"0.00011590","GP_ID":"218820597","DECAY_DATE":null,"APOAPSIS":"547.995","SEMIMAJOR_AXIS":"6925.328","FILE":"3670141","MEAN_ELEMENT_THEORY":"SGP4","RA_OF_ASC_NODE":"93.4269","BSTAR":"0.00011095000000","COUNTRY_CODE":"US","TLE_LINE2":"2 48143  53.0541  93.4269 0001159  75.8992 284.2125 15.06406759 92467","ELEMENT_SET_NO":"999","TLE_LINE1":"1 48143U 21027BD  22329.73539545  .00001372  00000-0  11095-3 0  9993"},{"TIME_SYSTEM":"UTC","REV_AT_EPOCH":"9183","RCS_SIZE":"LARGE","REF_FRAME":"TEME","MEAN_MOTION_DDOT":"0.0000000000000","OBJECT_NAME":"STARLINK-2487","PERIOD":"95.592","LAUNCH_DATE":"2021-04-07","MEAN_MOTION_DOT":"0.00001351","OBJECT_TYPE":"PAYLOAD","EPOCH":"2022-11-25T18:14:11.954976","SITE":"AFETR","EPHEMERIS_TYPE":"0","OBJECT_ID":"2021-027BE","ARG_OF_PERICENTER":"65.4652","CLASSIFICATION_TYPE":"U","CENTER_NAME":"EARTH","APOAPSIS":"548.490","SEMIMAJOR_AXIS":"6925.344","FILE":"3670141","MEAN_ELEMENT_THEORY":"SGP4","RA_OF_ASC_NODE":"138.3244","BSTAR":"0.00010958000000","COUNTRY_CODE":"US","TLE_LINE2":"2 48144  53.0545 138.3244 0001849  65.4652 294.6530 15.06401428 91831","ELEMENT_SET_NO":"999","TLE_LINE1":"1 48144U 21027BE  22329.75986059  .00001351  00000-0  10958-3 0  9996","MEAN_MOTION":"15.06401428","MEAN_ANOMALY":"294.6530","INCLINATION":"53.0545","NORAD_CAT_ID":"48144","PERIAPSIS":"545.929","ECCENTRICITY":"0.00018490","DECAY_DATE":null,"GP_ID":"218818855"},{"PERIAPSIS":"546.104","ECCENTRICITY":"0.00016150","DECAY_DATE":null,"GP_ID":"218819105","MEAN_MOTION":"15.06397037","MEAN_ANOMALY":"279.3516","NORAD_CAT_ID":"48145","INCLINATION":"53.0555","FILE":"3670141","MEAN_ELEMENT_THEORY":"SGP4","BSTAR":"0.00001037900000","RA_OF_ASC_NODE":"138.3091","COUNTRY_CODE":"US","ELEMENT_SET_NO":"999","TLE_LINE2":"2 48145  53.0555 138.3091 0001615  80.7655 279.3516 15.06397037 91842","TLE_LINE1":"1 48145U 21027BF  22329.76353652 -.00000127  00000-0  10379-4 0  9994","APOAPSIS":"548.341","SEMIMAJOR_AXIS":"6925.358","CENTER_NAME":"EARTH","OBJECT_TYPE":"PAYLOAD","EPOCH":"2022-11-25T18:19:29.555328","SITE":"AFETR","EPHEMERIS_TYPE":"0","OBJECT_ID":"2021-027BF","ARG_OF_PERICENTER":"80.7655","CLASSIFICATION_TYPE":"U","REF_FRAME":"TEME","OBJECT_NAME":"STARLINK-2488","MEAN_MOTION_DDOT":"0.0000000000000","PERIOD":"95.592","LAUNCH_DATE":"2021-04-07","MEAN_MOTION_DOT":"-0.00000127","TIME_SYSTEM":"UTC","REV_AT_EPOCH":"9184","RCS_SIZE":"LARGE"}];
